{"fetched_at":"2026-07-18T17:30:11.361Z","source":"https://celestrak.org/NORAD/elements/gp.php?NAME=PLEIADES&FORMAT=JSON","constellation":"pleiades","records":[{"OBJECT_NAME":"PLEIADES 1A","OBJECT_ID":"2011-076F","EPOCH":"2026-07-18T08:12:48.059424","CLASSIFICATION_TYPE":"U","MEAN_MOTION":14.5854781,"ECCENTRICITY":0.00016308,"INCLINATION":98.1967,"RA_OF_ASC_NODE":274.0247,"ARG_OF_PERICENTER":77.9448,"MEAN_ANOMALY":357.4396,"EPHEMERIS_TYPE":0,"NORAD_CAT_ID":38012,"ELEMENT_SET_NO":999,"REV_AT_EPOCH":77653,"BSTAR":0.000029171592,"MEAN_MOTION_DOT":9e-7,"MEAN_MOTION_DDOT":0},{"OBJECT_NAME":"PLEIADES 1B","OBJECT_ID":"2012-068A","EPOCH":"2026-07-18T07:02:19.036896","CLASSIFICATION_TYPE":"U","MEAN_MOTION":14.58534811,"ECCENTRICITY":0.00015006,"INCLINATION":98.1937,"RA_OF_ASC_NODE":273.9147,"ARG_OF_PERICENTER":78.7123,"MEAN_ANOMALY":281.4244,"EPHEMERIS_TYPE":0,"NORAD_CAT_ID":39019,"ELEMENT_SET_NO":999,"REV_AT_EPOCH":72538,"BSTAR":-1.7755e-7,"MEAN_MOTION_DOT":-4.6e-7,"MEAN_MOTION_DDOT":0}]}
