PLEIADES 1A             
1 38012U 11076F   26199.34222291  .00000090  00000+0  29172-4 0  9994
2 38012  98.1967 274.0247 0001630  77.9448 357.4396 14.58547810776539
PLEIADES 1B             
1 39019U 12068A   26199.29327589 -.00000046  00000+0 -17755-6 0  9993
2 39019  98.1937 273.9147 0001500  78.7123 281.4244 14.58534811725388
